{
    "links": {
        "self": "http://www.neowsapp.com/rest/v1/neo/3837608?api_key=iIulBulltgU6a56xZRHN4H3l9WmuAYTsLGpBGhQ2"
    },
    "id": "3837608",
    "neo_reference_id": "3837608",
    "name": "(2019 AJ3)",
    "designation": "2019 AJ3",
    "nasa_jpl_url": "http://ssd.jpl.nasa.gov/sbdb.cgi?sstr=3837608",
    "absolute_magnitude_h": 24.3,
    "estimated_diameter": {
        "kilometers": {
            "estimated_diameter_min": 0.0366906138,
            "estimated_diameter_max": 0.0820427065
        },
        "meters": {
            "estimated_diameter_min": 36.6906137531,
            "estimated_diameter_max": 82.0427064882
        },
        "miles": {
            "estimated_diameter_min": 0.0227984834,
            "estimated_diameter_max": 0.0509789586
        },
        "feet": {
            "estimated_diameter_min": 120.3760332259,
            "estimated_diameter_max": 269.1689931548
        }
    },
    "is_potentially_hazardous_asteroid": false,
    "close_approach_data": [
        {
            "close_approach_date": "2019-01-06",
            "close_approach_date_full": "2019-Jan-06 17:41",
            "epoch_date_close_approach": 1546796460000,
            "relative_velocity": {
                "kilometers_per_second": "10.1253303591",
                "kilometers_per_hour": "36451.1892926894",
                "miles_per_hour": "22649.3514802269"
            },
            "miss_distance": {
                "astronomical": "0.0481251101",
                "lunar": "18.7206678289",
                "kilometers": "7199413.964475487",
                "miles": "4473508.3981842406"
            },
            "orbiting_body": "Earth"
        },
        {
            "close_approach_date": "2153-11-30",
            "close_approach_date_full": "2153-Nov-30 23:51",
            "epoch_date_close_approach": 5803833060000,
            "relative_velocity": {
                "kilometers_per_second": "17.5738823754",
                "kilometers_per_hour": "63265.9765513939",
                "miles_per_hour": "39311.0174855036"
            },
            "miss_distance": {
                "astronomical": "0.4152120667",
                "lunar": "161.5174939463",
                "kilometers": "62114840.776617929",
                "miles": "38596372.3210242602"
            },
            "orbiting_body": "Earth"
        },
        {
            "close_approach_date": "2162-02-04",
            "close_approach_date_full": "2162-Feb-04 08:59",
            "epoch_date_close_approach": 6061942740000,
            "relative_velocity": {
                "kilometers_per_second": "14.2822250436",
                "kilometers_per_hour": "51416.0101570727",
                "miles_per_hour": "31947.9092000989"
            },
            "miss_distance": {
                "astronomical": "0.2622077175",
                "lunar": "101.9988021075",
                "kilometers": "39225716.035561725",
                "miles": "24373729.719632805"
            },
            "orbiting_body": "Earth"
        }
    ],
    "orbital_data": {
        "orbit_id": "10",
        "orbit_determination_date": "2020-09-11 07:41:47",
        "first_observation_date": "2019-01-04",
        "last_observation_date": "2019-02-12",
        "data_arc_in_days": 39,
        "observations_used": 53,
        "orbit_uncertainty": "7",
        "minimum_orbit_intersection": ".0420185",
        "jupiter_tisserand_invariant": "3.723",
        "epoch_osculation": "2459000.5",
        "eccentricity": ".4722416674865731",
        "semi_major_axis": "1.939424868662585",
        "inclination": "14.94777085397529",
        "ascending_node_longitude": "289.7110766208062",
        "orbital_period": "986.5244813698539",
        "perihelion_distance": "1.023547634720438",
        "perihelion_argument": "173.5856933042642",
        "aphelion_distance": "2.855302102604732",
        "perihelion_time": "2459473.517113857497",
        "mean_anomaly": "187.3878000957003",
        "mean_motion": ".3649174519218382",
        "equinox": "J2000",
        "orbit_class": {
            "orbit_class_type": "AMO",
            "orbit_class_description": "Near-Earth asteroid orbits similar to that of 1221 Amor",
            "orbit_class_range": "1.017 AU < q (perihelion) < 1.3 AU"
        }
    },
    "is_sentry_object": false
}